{
    "links": {
        "self": "http://www.neowsapp.com/rest/v1/neo/3596498?api_key=iIulBulltgU6a56xZRHN4H3l9WmuAYTsLGpBGhQ2"
    },
    "id": "3596498",
    "neo_reference_id": "3596498",
    "name": "(2012 BC62)",
    "designation": "2012 BC62",
    "nasa_jpl_url": "http://ssd.jpl.nasa.gov/sbdb.cgi?sstr=3596498",
    "absolute_magnitude_h": 26.6,
    "estimated_diameter": {
        "kilometers": {
            "estimated_diameter_min": 0.0127219879,
            "estimated_diameter_max": 0.0284472297
        },
        "meters": {
            "estimated_diameter_min": 12.7219878539,
            "estimated_diameter_max": 28.4472296503
        },
        "miles": {
            "estimated_diameter_min": 0.0079050743,
            "estimated_diameter_max": 0.0176762835
        },
        "feet": {
            "estimated_diameter_min": 41.7388066307,
            "estimated_diameter_max": 93.330808926
        }
    },
    "is_potentially_hazardous_asteroid": false,
    "close_approach_data": [
        {
            "close_approach_date": "2012-02-01",
            "close_approach_date_full": "2012-Feb-01 08:21",
            "epoch_date_close_approach": 1328084460000,
            "relative_velocity": {
                "kilometers_per_second": "8.9062009354",
                "kilometers_per_hour": "32062.3233675003",
                "miles_per_hour": "19922.2808724337"
            },
            "miss_distance": {
                "astronomical": "0.0414311998",
                "lunar": "16.1167367222",
                "kilometers": "6198019.241624426",
                "miles": "3851270.5709560388"
            },
            "orbiting_body": "Earth"
        }
    ],
    "orbital_data": {
        "orbit_id": "5",
        "orbit_determination_date": "2019-07-16 06:14:56",
        "first_observation_date": "2012-01-26",
        "last_observation_date": "2012-01-27",
        "data_arc_in_days": 1,
        "observations_used": 21,
        "orbit_uncertainty": "8",
        "minimum_orbit_intersection": ".0411026",
        "jupiter_tisserand_invariant": "4.393",
        "epoch_osculation": "2455953.5",
        "eccentricity": ".3589021877655278",
        "semi_major_axis": "1.529670163149844",
        "inclination": "11.51512977237976",
        "ascending_node_longitude": "305.1898095514678",
        "orbital_period": "691.0271651657498",
        "perihelion_distance": ".9806681950357129",
        "perihelion_argument": "217.7412181527079",
        "aphelion_distance": "2.078672131263974",
        "perihelion_time": "2455985.570744793699",
        "mean_anomaly": "343.2923093219319",
        "mean_motion": ".5209636004883402",
        "equinox": "J2000",
        "orbit_class": {
            "orbit_class_type": "APO",
            "orbit_class_description": "Near-Earth asteroid orbits which cross the Earth’s orbit similar to that of 1862 Apollo",
            "orbit_class_range": "a (semi-major axis) > 1.0 AU; q (perihelion) < 1.017 AU"
        }
    },
    "is_sentry_object": false
}